GEESAT-4 A              
1 65119U 25170A   25248.94920453  .00004238  00000+0  49831-3 0  9998
2 65119  49.9864  53.5736 0014391  40.9410 319.2608 14.86566602  4219
GEESAT-4 B              
1 65120U 25170B   25248.94042961  .00004068  00000+0  48193-3 0  9990
2 65120  49.9839  53.5180 0008573  74.7560 285.4327 14.86379146  4231
GEESAT-4 C              
1 65121U 25170C   25248.91056216  .00004786  00000+0  56062-3 0  9997
2 65121  49.9912  53.3426 0020610  47.8057 312.4629 14.86398870  4201
GEESAT-4 D              
1 65122U 25170D   25248.70122256  .00004570  00000+0  53792-3 0  9991
2 65122  49.9817  54.2179 0010236  58.9690 301.2253 14.86381182  4173
GEESAT-4 E              
1 65123U 25170E   25248.94785388  .00004103  00000+0  48446-3 0  9991
2 65123  49.9914  53.5715 0020751  35.9443 324.2888 14.86393785  4209
GEESAT-4 F              
1 65124U 25170F   25248.93280150  .00004396  00000+0  51762-3 0  9997
2 65124  49.9831  53.4606 0017864  28.6822 331.5096 14.86390481  4209
GEESAT-4 G              
1 65125U 25170G   25248.91794490  .00004521  00000+0  53102-3 0  9993
2 65125  49.9916  53.3897 0017863  49.0439 311.2044 14.86434104  4204
GEESAT-4 H              
1 65126U 25170H   25248.96272113  .00005286  00000+0  61784-3 0  9996
2 65126  49.9745  52.9126 0008171 173.2436 186.8615 14.86400054  4212
GEESAT-4 J              
1 65127U 25170J   25248.49348645  .00003606  00000+0  46429-3 0  9992
2 65127  49.9914  55.1338 0018317  48.0863 312.1633 14.83106163  4144
GEESAT-4 K              
1 65128U 25170K   25248.92546470  .00004196  00000+0  49265-3 0  9993
2 65128  49.9925  53.4319 0032403  55.2772 305.1212 14.86386016  4200
GEESAT-4 L              
1 65129U 25170L   25248.95523334  .00004360  00000+0  51429-3 0  9999
2 65129  49.9845  52.8809 0012137  65.8480 294.3727 14.86387967  4211
KUIPER-00081            
1 65132U 25171A   25248.37710093  .00035994  00000+0  10104-2 0  9991
2 65132  51.8758 284.7801 0004834 208.4546 151.6177 15.36201899  5075
KUIPER-00088            
1 65133U 25171B   25248.83311960  .00026566  00000+0  74811-3 0  9994
2 65133  51.8766 282.5885 0004327 209.3939 150.6804 15.36260770  5143
KUIPER-00095            
1 65134U 25171C   25248.32230189  .00240346  00000+0  65761-2 0  9999
2 65134  51.8758 285.1605 0005366 275.7711  84.2663 15.35872882  5061
KUIPER-00096            
1 65135U 25171D   25248.51371543  .00045874  00000+0  12985-2 0  9990
2 65135  51.8750 284.1901 0004137 227.2808 132.7830 15.35832842  5096
KUIPER-00097            
1 65136U 25171E   25248.58335242  .00951454  00000+0  23749-1 0  9993
2 65136  51.8753 283.9082 0009221 280.6527  79.3421 15.36835405  5098
KUIPER-00098            
1 65137U 25171F   25248.83268902  .00102120  00000+0  28311-2 0  9999
2 65137  51.8735 282.5828 0004199 191.9219 168.1669 15.36105646  4483
KUIPER-00099            
1 65138U 25171G   25248.83498668  .00030278  00000+0  85583-3 0  9993
2 65138  51.8742 282.6002 0004835 216.9919 143.0734 15.36072172  5134
KUIPER-00100            
1 65139U 25171H   25248.51269007  .00038570  00000+0  10954-2 0  9994
2 65139  51.8754 284.1845 0004391 227.8006 132.2608 15.35806144  5082
KUIPER-00102            
1 65140U 25171J   25248.90803427  .00063316  00000+0  17967-2 0  9996
2 65140  51.8742 282.3316 0004809 257.0757 102.9692 15.35607047  5141
KUIPER-00103            
1 65141U 25171K   25248.31937063  .00039004  00000+0  11094-2 0  9998
2 65141  51.8738 285.1368 0003987 233.7433 126.3185 15.35756604  5054
KUIPER-00104            
1 65142U 25171L   25248.38341327  .00040068  00000+0  11377-2 0  9994
2 65142  51.8762 284.8249 0004016 229.7222 130.3413 15.35797476  5063
KUIPER-00105            
1 65143U 25171M   25248.83086478  .00029084  00000+0  81432-3 0  9993
2 65143  51.8760 282.5711 0004943 207.0407 153.0323 15.36388853  5141
KUIPER-00106            
1 65144U 25171N   25248.57606882  .00051091  00000+0  14343-2 0  9991
2 65144  51.8747 283.8580 0004474 219.3513 140.7149 15.36040259  5108
KUIPER-00107            
1 65145U 25171P   25248.38186743  .00037140  00000+0  10517-2 0  9998
2 65145  51.8763 284.8150 0004479 218.4098 141.6570 15.35915493  5078
KUIPER-00108            
1 65146U 25171Q   25248.91667824  .00057651  00000+0  16481-2 0  9997
2 65146  51.8766 282.3066 0004824 245.4124 158.3955 15.35417370  4280
KUIPER-00109            
1 65147U 25171R   25248.83452557  .00036820  00000+0  10372-2 0  9992
2 65147  51.8735 282.5931 0004193 208.8969 151.1786 15.36085134  5137
KUIPER-00110            
1 65148U 25171S   25248.83564179  .00032101  00000+0  90570-3 0  9994
2 65148  51.8765 282.6057 0004147 218.0349 142.0345 15.36102545  5131
KUIPER-00111            
1 65149U 25171T   25248.38460290  .00047051  00000+0  13326-2 0  9997
2 65149  51.8763 284.8320 0004024 234.0262 126.0351 15.35801903  5067
KUIPER-00112            
1 65150U 25171U   25248.32402638  .00019571  00000+0  56940-3 0  9991
2 65150  51.8761 285.1736 0004718 250.9495 109.0980 15.35426362  5057
KUIPER-00114            
1 65151U 25171V   25248.91667824 -.00475001  00000+0 -16148-1 0  9997
2 65151  51.8769 282.3262 0004882 224.2872 159.0884 15.31921154  4371
KUIPER-00115            
1 65152U 25171W   25248.83597726  .00033691  00000+0  95249-3 0  9996
2 65152  51.8751 282.5996 0004570 210.7965 149.2754 15.36012884  5134
KUIPER-00116            
1 65153U 25171X   25248.51533583  .00038452  00000+0  10987-2 0  9998
2 65153  51.8763 284.2085 0004290 240.7105 119.3452 15.35617472  5084
KUIPER-00118            
1 65154U 25171Y   25247.41145710  .00019992  00000+0  57952-3 0  9990
2 65154  51.8762 289.5568 0003824 235.7198 124.3426 15.35529765  4911
KUIPER-00119            
1 65155U 25171Z   25248.83255562  .00036811  00000+0  10324-2 0  9995
2 65155  51.8762 282.5817 0004532 215.1338 144.9350 15.36220478  5136
METOP-SGA1              
1 65159U 25172A   25248.92131647  .00000160  00000+0  90213-4 0  9992
2 65159  98.7051 308.0672 0006589 313.1208  46.9418 14.23131479  3392
HULIANWANG DIGUI 8A     
1 65164U 25174A   25248.77796284  .00000119  00000+0  21064-3 0  9998
2 65164  86.5036 348.0653 0001230  93.9625 266.1655 13.33619332  3144
HULIANWANG DIGUI 8B     
1 65165U 25174B   25248.40962999  .00000015  00000+0 -16115-6 0  9997
2 65165  86.5015 348.1908 0001629  76.6267 283.5053 13.33151506  3091
HULIANWANG DIGUI 8C     
1 65166U 25174C   25247.88788617  .00000155  00000+0  28780-3 0  9994
2 65166  86.5031 348.3798 0002103  69.9212 290.2153 13.32787989  3020
HULIANWANG DIGUI 8D     
1 65167U 25174D   25248.41861383  .00000107  00000+0  18945-3 0  9996
2 65167  86.5053 348.2032 0001472  89.0514 271.0793 13.32651121  3093
HULIANWANG DIGUI 8E     
1 65168U 25174E   25248.49789688  .00000025  00000+0  20178-4 0  9993
2 65168  86.4992 348.1659 0001465  81.8331 278.2973 13.32038436  3107
HULIANWANG DIGUI 8F     
1 65169U 25174F   25248.50428303  .00000042  00000+0  57151-4 0  9990
2 65169  86.5044 348.1801 0001648  85.2220 274.9107 13.31412549  3106
HULIANWANG DIGUI 8G     
1 65170U 25174G   25247.90770553  .00000046  00000+0  65386-4 0  9995
2 65170  86.4980 348.3832 0003081  46.0526 314.0865 13.30865561  3022
HULIANWANG DIGUI 8H     
1 65171U 25174H   25248.59483060 -.00000017  00000+0 -68286-4 0  9998
2 65171  86.4963 348.1438 0001469  91.7685 268.3621 13.29793231  3118
HULIANWANG DIGUI 8J     
1 65172U 25174J   25248.96608131  .00000085  00000+0  15023-3 0  9991
2 65172  86.5000 348.0242 0001152  80.4987 279.6281 13.30013899  3162
HULIANWANG DIGUI 8K     
1 65173U 25174K   25248.22413517 -.00001664  00000+0 -36444-2 0  9998
2 65173  86.5006 348.2867 0001828  61.5846 298.5475 13.29122875  3032
STARLINK-34956          
1 65174U 25175A   25248.90302465  .00097451  00000+0  17696-2 0  9999
2 65174  97.6022 119.8639 0001734  82.2888 277.8559 15.49215682  4762
STARLINK-34949          
1 65175U 25175B   25248.90267889  .00107937  00000+0  19580-2 0  9995
2 65175  97.6022 119.8643 0001732  90.5338 269.6111 15.49204449  4805
STARLINK-34707          
1 65176U 25175C   25248.90233433  .00047001  00000+0  86030-3 0  9994
2 65176  97.6023 119.8644 0001563  98.2266 261.9161 15.49203444  4797
STARLINK-34967          
1 65177U 25175D   25248.90199056  .00101911  00000+0  18496-2 0  9998
2 65177  97.6023 119.8662 0002015  92.5084 267.6397 15.49213402  4795
STARLINK-34929          
1 65178U 25175E   25248.90164581  .00070951  00000+0  12938-2 0  9998
2 65178  97.6024 119.8671 0002659  95.9565 264.1988 15.49202796  4794
STARLINK-34932          
1 65179U 25175F   25248.90095660  .00091872  00000+0  16694-2 0  9998
2 65179  97.6024 119.8674 0002143  96.7900 263.3595 15.49219304  4796
STARLINK-34862          
1 65180U 25175G   25248.90060892  .00056786  00000+0  10363-2 0  9991
2 65180  97.6026 119.8687 0002050  90.2620 269.8865 15.49241261  4797
STARLINK-34942          
1 65181U 25175H   25248.90130119  .00111323  00000+0  20167-2 0  9994
2 65181  97.6024 119.8670 0002384  94.5469 265.6054 15.49229043  4761
STARLINK-34944          
1 65182U 25175J   25248.90026699  .00073148  00000+0  13328-2 0  9995
2 65182  97.6025 119.8689 0002699  93.3418 266.8141 15.49215610  4791
STARLINK-34939          
1 65183U 25175K   25248.89992254  .00090557  00000+0  16460-2 0  9996
2 65183  97.6025 119.8691 0001822  93.2236 266.9223 15.49216549  4760
STARLINK-34947          
1 65184U 25175L   25248.89957802  .00084090  00000+0  15299-2 0  9991
2 65184  97.6025 119.8697 0002517  94.7632 265.3906 15.49213410  4793
STARLINK-34945          
1 65185U 25175M   25248.89923354  .00110409  00000+0  20009-2 0  9996
2 65185  97.6025 119.8697 0001875  94.7732 265.3733 15.49223326  4796
STARLINK-34965          
1 65186U 25175N   25248.89854384  .00105783  00000+0  19183-2 0  9993
2 65186  97.6025 119.8701 0002371 100.1610 259.9908 15.49221564  4797
